NORAD_CAT_ID,OBJECT_NAME,OBJECT_TYPE,EPOCH,MEAN_MOTION,ECCENTRICITY,INCLINATION,RA_OF_ASC_NODE,ARG_OF_PERICENTER,MEAN_ANOMALY,BSTAR,MEAN_MOTION_DOT,MEAN_MOTION_DDOT,TLE_LINE0,TLE_LINE1,TLE_LINE2,SEMIMAJOR_AXIS,PERIOD,APOGEE,PERIGEE,DECAYED
53735.0,STARLINK-4618,PAYLOAD,2022-11-29 14:00:01,15.0882359,0.0001438,53.2147,233.4501,93.5005,302.5676,0.00096602,0.00015113,0.0,0 STARLINK-4618,1 53735U 22107AM  22333.58335648  .00015113  00000-0  96602-3 0  9997,2 53735  53.2147 233.4501 0001438  93.5005 302.5676 15.08823590  1307,6917.931,95.439,540.79,538.8009999999998,0.0
53735.0,STARLINK-4618,PAYLOAD,2022-11-29 22:00:00,15.08835967,0.0001587,53.2148,231.955,88.9268,318.6594,-0.0017729,-0.0002839,0.0,0 STARLINK-4618,1 53735U 22107AM  22333.91667824 -.00028390  00000-0 -17729-2 0  9993,2 53735  53.2148 231.9550 0001587  88.9268 318.6594 15.08835967 13298,6917.893,95.438,540.856,538.66,0.0
53735.0,STARLINK-4618,PAYLOAD,2022-11-30 14:00:01,15.08811104,0.0001534,53.2149,228.9614,93.5946,337.2213,0.0034365,0.00054786,0.0,0 STARLINK-4618,1 53735U 22107AM  22334.58335648  .00054786  00000-0  34365-2 0  9994,2 53735  53.2149 228.9614 0001534  93.5946 337.2213 15.08811104 13396,6917.969,95.439,540.895,538.7719999999998,0.0
53735.0,STARLINK-4618,PAYLOAD,2022-11-30 22:00:00,15.08844325,0.0001608,53.216,227.4685,92.5931,349.7437,0.001287,0.00020256,0.0,0 STARLINK-4618,1 53735U 22107AM  22334.91667824  .00020256  00000-0  12870-2 0  9997,2 53735  53.2160 227.4685 0001608  92.5931 349.7437 15.08844325  1301,6917.8669999999975,95.437,540.845,538.62,0.0
53735.0,STARLINK-4618,PAYLOAD,2022-12-01 08:00:01,15.08849318,0.0001522,53.2153,225.5959,83.0684,103.8462,-0.0015253,-0.00024487,0.0,0 STARLINK-4618,1 53735U 22107AM  22335.33335648 -.00024487  00000-0 -15253-2 0  9990,2 53735  53.2153 225.5959 0001522  83.0684 103.8462 15.08849318 13500,6917.852,95.437,540.77,538.664,0.0
53735.0,STARLINK-4618,PAYLOAD,2022-12-01 14:00:01,15.08825267,0.0001498,53.2151,224.4713,89.85799999999998,15.713,0.0033517,0.00053437,0.0,0 STARLINK-4618,1 53735U 22107AM  22335.58334491  .00053437  00000-0  33517-2 0  9990,2 53735  53.2151 224.4713 0001498  89.8580  15.7130 15.08825267  1300,6917.925,95.438,540.827,538.754,0.0
53735.0,STARLINK-4618,PAYLOAD,2022-12-01 22:00:00,15.08877258,0.0001539,53.2153,222.9762,84.0465,33.1229,-0.0039707,-0.00062993,0.0,0 STARLINK-4618,1 53735U 22107AM  22335.91667824 -.00062993  00000-0 -39707-2 0  9992,2 53735  53.2153 222.9762 0001539  84.0465  33.1229 15.08877258  1304,6917.767,95.435,540.696,538.567,0.0
53735.0,STARLINK-4618,PAYLOAD,2022-12-02 00:00:00,15.08851629,0.0001529,53.2154,222.6024,81.377,128.704,-0.0013784,-0.00022165,0.0,0 STARLINK-4618,1 53735U 22107AM  22336.00001157 -.00022165  00000-0 -13784-2 0  9998,2 53735  53.2154 222.6024 0001529  81.3770 128.7040 15.08851629 13603,6917.845,95.437,540.768,538.6519999999998,0.0
53735.0,STARLINK-4618,PAYLOAD,2022-12-02 14:00:01,15.08802559,0.0001338,53.2157,219.9819,88.2001,52.183,0.003006,0.00047828,0.0,0 STARLINK-4618,1 53735U 22107AM  22336.58334491  .00047828  00000-0  30060-2 0  9998,2 53735  53.2157 219.9819 0001338  88.2001  52.1830 15.08802559  1307,6917.995,95.44,540.785,538.934,0.0
53735.0,STARLINK-4618,PAYLOAD,2022-12-02 22:00:00,15.08838027,0.0001409999999999,53.2159,218.487,81.2682,70.6851,-0.0008556,-0.00013878,0.0,0 STARLINK-4618,1 53735U 22107AM  22336.91667824 -.00013878  00000-0 -85560-3 0  9990,2 53735  53.2159 218.4870 0001410  81.2682  70.6851 15.08838027  1306,6917.886,95.438,540.727,538.776,0.0
53735.0,STARLINK-4618,PAYLOAD,2022-12-03 00:00:00,15.0882886,0.0001426,53.216,218.1133,78.7388,166.1138,0.00035429,5.353e-05,0.0,0 STARLINK-4618,1 53735U 22107AM  22337.00001157  .00005353  00000-0  35429-3 0  9998,2 53735  53.2160 218.1133 0001426  78.7388 166.1138 15.08828860 13753,6917.9140000000025,95.438,540.766,538.793,0.0
53735.0,STARLINK-4618,PAYLOAD,2022-12-03 14:00:01,15.08801733,0.0001259,53.2161,215.4929,87.9649,87.166,0.0027129,0.00043107,0.0,0 STARLINK-4618,1 53735U 22107AM  22337.58334491  .00043107  00000-0  27129-2 0  9997,2 53735  53.2161 215.4929 0001259  87.9649  87.1660 15.08801733  1303,6917.996999999999,95.44,540.7330000000002,538.991,0.0
53735.0,STARLINK-4618,PAYLOAD,2022-12-03 22:00:00,15.08831787,0.0001325,53.2162,213.9981,80.1413,106.5583,-0.00065275,-0.00010659,0.0,0 STARLINK-4618,1 53735U 22107AM  22337.91667824 -.00010659  00000-0 -65275-3 0  9996,2 53735  53.2162 213.9981 0001325  80.1413 106.5583 15.08831787  1305,6917.905,95.438,540.687,538.854,0.0
53735.0,STARLINK-4618,PAYLOAD,2022-12-04 06:00:00,15.08845408,0.0001296,53.216,212.5016,78.1883,120.0882,-0.00093606,-0.00015156,0.0,0 STARLINK-4618,1 53735U 22107AM  22338.25001157 -.00015156  00000-0 -93606-3 0  9991,2 53735  53.2160 212.5016 0001296  78.1883 120.0882 15.08845408 13943,6917.864000000001,95.437,540.625,538.832,0.0
53735.0,STARLINK-4618,PAYLOAD,2022-12-04 14:00:01,15.08825507,0.0001271,53.2161,211.0039,89.329,120.5465,0.0025462,0.00040451,0.0,0 STARLINK-4618,1 53735U 22107AM  22338.58334491  .00040451  00000-0  25462-2 0  9995,2 53735  53.2161 211.0039 0001271  89.3290 120.5465 15.08825507  1309,6917.925,95.438,540.669,538.91,0.0
53735.0,STARLINK-4618,PAYLOAD,2022-12-04 22:00:00,15.08853673,0.0001346,53.216,209.5092,80.5773,140.8955,-0.00055254,-9.074e-05,0.0,0 STARLINK-4618,1 53735U 22107AM  22338.91667824 -.00009074  00000-0 -55254-3 0  9992,2 53735  53.2160 209.5092 0001346  80.5773 140.8955 15.08853673  1305,6917.839,95.437,540.635,538.7719999999998,0.0
53735.0,STARLINK-4618,PAYLOAD,2022-12-05 14:00:01,15.08823422,0.0001404,53.2156,206.5149,90.8564,153.8955,0.0025152,0.0003995,0.0,0 STARLINK-4618,1 53735U 22107AM  22339.58335648  .00039950  00000-0  25152-2 0  9999,2 53735  53.2156 206.5149 0001404  90.8564 153.8955 15.08823422  1300,6917.931,95.439,540.7669999999998,538.825,0.0
53735.0,STARLINK-4618,PAYLOAD,2022-12-05 19:16:45,15.08834888,0.0001379,53.2174,205.5291,91.1243,268.9907,0.00014301,1.989e-05,0.0,0 STARLINK-4618,1 53735U 22107AM  22339.80330722  .00001989  00000-0  14301-3 0  9998,2 53735  53.2174 205.5291 0001379  91.1243 268.9907 15.08834888 14819,6917.896,95.438,540.715,538.807,0.0
53735.0,STARLINK-4618,PAYLOAD,2022-12-06 01:38:18,15.08838574,0.0001366,53.217,204.3386,85.8473,274.2675,0.0001228,1.667e-05,0.0,0 STARLINK-4618,1 53735U 22107AM  22340.06826581  .00001667  00000-0  12280-3 0  9998,2 53735  53.2170 204.3386 0001366  85.8473 274.2675 15.08838574 14221,6917.885,95.438,540.695,538.805,0.0
53735.0,STARLINK-4618,PAYLOAD,2022-12-06 07:59:49,15.08865974,0.0001268,53.217,203.1493,75.9777,284.1356,-0.00020014,-3.474e-05,0.0,0 STARLINK-4618,1 53735U 22107AM  22340.33321414 -.00003474  00000-0 -20014-3 0  9997,2 53735  53.2170 203.1493 0001268  75.9777 284.1356 15.08865974 14269,6917.801,95.436,540.543,538.789,0.0
53735.0,STARLINK-4618,PAYLOAD,2022-12-06 23:53:42,15.08838074,0.0001408,53.2167,200.1757,85.2321,274.8832,-2.95e-05,-7.57e-06,0.0,0 STARLINK-4618,1 53735U 22107AM  22340.99563152 -.00000757  00000-0 -29500-4 0  9997,2 53735  53.2167 200.1757 0001408  85.2321 274.8832 15.08838074 14367,6917.886,95.438,540.725,538.7769999999998,0.0
53735.0,STARLINK-4618,PAYLOAD,2022-12-07 20:33:43,15.08833466,0.0001406999999999,53.2168,196.3091,84.0673,276.048,7.6056e-06,-1.67e-06,0.0,0 STARLINK-4618,1 53735U 22107AM  22341.85675568 -.00000167  00000-0  76056-5 0  9991,2 53735  53.2168 196.3091 0001407  84.0673 276.0480 15.08833466 15129,6917.9,95.438,540.739,538.7919999999998,0.0
53735.0,STARLINK-4618,PAYLOAD,2022-12-07 23:44:29,15.08834698,0.0001469,53.2169,195.715,82.1389,277.97700000000003,-2.8033e-06,-3.33e-06,0.0,0 STARLINK-4618,1 53735U 22107AM  22341.98923584 -.00000333  00000-0 -28033-5 0  9997,2 53735  53.2169 195.7150 0001469  82.1389 277.9770 15.08834698 15142,6917.897,95.438,540.778,538.745,0.0
53735.0,STARLINK-4618,PAYLOAD,2022-12-08 23:35:16,15.08837101,0.0001472,53.2173,191.2587,86.0029,274.1131,8.2674e-05,1.028e-05,0.0,0 STARLINK-4618,1 53735U 22107AM  22342.98283451  .00001028  00000-0  82674-4 0  9990,2 53735  53.2173 191.2587 0001472  86.0029 274.1131 15.08837101 14668,6917.889,95.438,540.773,538.736,0.0
53735.0,STARLINK-4618,PAYLOAD,2022-12-09 13:53:45,15.08826368,0.0001424,53.2194,188.5831,58.721,301.3921,0.00021306,3.103e-05,0.0,0 STARLINK-4618,1 53735U 22107AM  22343.57899944  .00003103  00000-0  21306-3 0  9996,2 53735  53.2194 188.5831 0001424  58.7210 301.3921 15.08826368 15380,6917.922,95.438,540.7719999999998,538.802,0.0
53735.0,STARLINK-4618,PAYLOAD,2022-12-09 20:15:18,15.08828771,0.0001448,53.2194,187.391,83.304,276.8117,7.720100000000001e-05,9.41e-06,0.0,0 STARLINK-4618,1 53735U 22107AM  22343.84396343  .00000941  00000-0  77201-4 0  9994,2 53735  53.2194 187.3910 0001448  83.3040 276.8117 15.08828771 14793,6917.915,95.438,540.781,538.778,0.0
53735.0,STARLINK-4618,PAYLOAD,2022-12-10 01:01:28,15.08816474,0.0001158,53.2189,186.5027,36.0175,324.0895,0.00010496,1.382e-05,0.0,0 STARLINK-4618,1 53735U 22107AM  22344.04269200  .00001382  00000-0  10496-3 0  9990,2 53735  53.2189 186.5027 0001158  36.0175 324.0895 15.08816474 14829,6917.9519999999975,95.439,540.618,539.016,0.0
53735.0,STARLINK-4618,PAYLOAD,2022-12-10 20:06:04,15.08844075,0.0001336,53.2191,182.9306,78.3814,281.7328,3.2835e-05,2.35e-06,0.0,0 STARLINK-4618,1 53735U 22107AM  22344.83755724  .00000235  00000-0  32835-4 0  9996,2 53735  53.2191 182.9306 0001336  78.3814 281.7328 15.08844075 14940,6917.868,95.437,540.6569999999998,538.809,0.0
53735.0,STARLINK-4618,PAYLOAD,2022-12-10 23:16:51,15.08845539,0.0001279,53.2184,182.3349,78.4868,281.6268,6.7327e-05,7.84e-06,0.0,0 STARLINK-4618,1 53735U 22107AM  22344.97003500  .00000784  00000-0  67327-4 0  9992,2 53735  53.2184 182.3349 0001279  78.4868 281.6268 15.08845539 15599,6917.863,95.437,540.613,538.844,0.0
